[{"OBJECT_NAME":"STARLINK-2298","OBJECT_ID":"2021-024AX","EPOCH":"2026-03-10T00:00:02.999808","MEAN_MOTION":15.15852398,"ECCENTRICITY":0.00022088,"INCLINATION":53.0935,"RA_OF_ASC_NODE":330.2189,"ARG_OF_PERICENTER":83.1069,"MEAN_ANOMALY":79.3652,"EPHEMERIS_TYPE":0,"CLASSIFICATION_TYPE":"U","NORAD_CAT_ID":48022,"ELEMENT_SET_NO":999,"REV_AT_EPOCH":575,"BSTAR":0.0020729399,"MEAN_MOTION_DOT":0.00040038,"MEAN_MOTION_DDOT":0},{"OBJECT_NAME":"KOYOH","OBJECT_ID":"2023-185C","EPOCH":"2026-03-09T23:57:30.987648","MEAN_MOTION":15.16984541,"ECCENTRICITY":0.00055962,"INCLINATION":97.5396,"RA_OF_ASC_NODE":141.7167,"ARG_OF_PERICENTER":294.7057,"MEAN_ANOMALY":65.3594,"EPHEMERIS_TYPE":0,"CLASSIFICATION_TYPE":"U","NORAD_CAT_ID":58464,"ELEMENT_SET_NO":999,"REV_AT_EPOCH":12508,"BSTAR":0.00043532489,"MEAN_MOTION_DOT":8.537e-5,"MEAN_MOTION_DDOT":0}]
